GLOBALSTAR M001         
1 25162U 98008A   25307.70869108 -.00000078  00000+0  13979-3 0  9994
2 25162  52.0032 287.1321 0001148 176.8419 354.1209 12.38219756260998
GLOBALSTAR M004         
1 25163U 98008B   25306.43213020 -.00000069  00000+0  19021-3 0  9994
2 25163  52.0026 352.3970 0002965 231.8396 141.5292 12.63407016279166
GLOBALSTAR M002         
1 25164U 98008C   25307.57805668 -.00000068  00000+0  15821-3 0  9999
2 25164  52.0010 250.7041 0002114  41.8902 318.2079 11.61512887200269
GLOBALSTAR M003         
1 25165U 98008D   25307.80585624 -.00000179  00000+0 -95470-3 0  9995
2 25165  51.9895 141.8263 0007424 207.5679 166.1103 12.12050851250152
GLOBALSTAR M014         
1 25306U 98023A   25306.40113933 -.00000046  00000+0  59002-3 0  9997
2 25306  51.9810 173.9732 0000103  80.4442  90.3050 11.65483225207283
GLOBALSTAR M006         
1 25307U 98023B   25306.50271589 -.00000077  00000+0 -33856-4 0  9996
2 25307  51.9929 231.3583 0003655   7.9977 163.4512 11.58177909232857
GLOBALSTAR M015         
1 25308U 98023C   25307.80704744 -.00000069  00000+0  90587-4 0  9999
2 25308  51.9842 332.9813 0012376 324.6047 206.7446 11.48859146210125
GLOBALSTAR M008         
1 25309U 98023D   25306.37287302 -.00000056  00000+0  31669-3 0  9998
2 25309  51.9939 157.4166 0003655 100.1050  70.7965 12.36075384254939
